NORAD_CAT_ID,OBJECT_NAME,OBJECT_TYPE,EPOCH,MEAN_MOTION,ECCENTRICITY,INCLINATION,RA_OF_ASC_NODE,ARG_OF_PERICENTER,MEAN_ANOMALY,BSTAR,MEAN_MOTION_DOT,MEAN_MOTION_DDOT,TLE_LINE0,TLE_LINE1,TLE_LINE2,SEMIMAJOR_AXIS,PERIOD,APOGEE,PERIGEE,DECAYED
52348.0,STARLINK-3829,PAYLOAD,2023-03-08 13:34:33,15.08855594,0.0001383,53.2156,84.2996,86.6391,273.476,0.00090365,0.00014129,0.0,0 STARLINK-3829,1 52348U 22045T   23067.56566108  .00014129  00000-0  90365-3 0  9993,2 52348  53.2156  84.2996 0001383  86.6391 273.4760 15.08855594 50152,6917.833,95.437,540.654,538.741,0.0
52348.0,STARLINK-3829,PAYLOAD,2023-03-08 18:20:42,15.08835447,0.0001256,53.2148,83.4085,94.8856,265.2279,5.213e-05,5.42e-06,0.0,0 STARLINK-3829,1 52348U 22045T   23067.76438426  .00000542  00000-0  52130-4 0  9999,2 52348  53.2148  83.4085 0001256  94.8856 265.2279 15.08835447 50181,6917.894,95.438,540.628,538.89,0.0
52348.0,STARLINK-3829,PAYLOAD,2023-03-09 00:42:15,15.08834097,8.96e-05,53.2155,82.2192,98.6982,261.4112,4.3873e-06,-2.18e-06,0.0,0 STARLINK-3829,1 52348U 22045T   23068.02934432 -.00000218  00000-0  43873-5 0  9993,2 52348  53.2155  82.2192 0000896  98.6982 261.4112 15.08834097 50225,6917.898,95.438,540.383,539.144,0.0
52348.0,STARLINK-3829,PAYLOAD,2023-03-09 07:03:47,15.08849879,0.0001418,53.2143,81.0304,84.6673,275.4481,0.00048164,7.388e-05,0.0,0 STARLINK-3829,1 52348U 22045T   23068.29430273  .00007388  00000-0  48164-3 0  9996,2 52348  53.2143  81.0304 0001418  84.6673 275.4481 15.08849879 50269,6917.85,95.437,540.696,538.734,0.0
52348.0,STARLINK-3829,PAYLOAD,2023-03-09 18:11:29,15.08862168,0.0001429,53.2145,78.9486,85.3397,274.7758,0.00078673,0.00012263,0.0,0 STARLINK-3829,1 52348U 22045T   23068.75797805  .00012263  00000-0  78673-3 0  9990,2 52348  53.2145  78.9486 0001429  85.3397 274.7758 15.08862168 50333,6917.813,95.436,540.666,538.689,0.0
52348.0,STARLINK-3829,PAYLOAD,2023-03-10 05:19:11,15.08831213,0.0001629,53.2161,76.8649,25.1005,335.0066,-0.00013487,-2.433e-05,0.0,0 STARLINK-3829,1 52348U 22045T   23069.22166501 -.00002433  00000-0 -13487-3 0  9998,2 52348  53.2161  76.8649 0001629  25.1005 335.0066 15.08831213 50407,6917.907,95.438,540.899,538.645,0.0
52348.0,STARLINK-3829,PAYLOAD,2023-03-10 10:05:20,15.08831293,0.0001203,53.2151,75.9727,95.6625,264.4504,-0.00045255,-7.481e-05,0.0,0 STARLINK-3829,1 52348U 22045T   23069.42038066 -.00007481  00000-0 -45255-3 0  9990,2 52348  53.2151  75.9727 0001203  95.6625 264.4504 15.08831293 50434,6917.907,95.438,540.604,538.94,0.0
52348.0,STARLINK-3829,PAYLOAD,2023-03-11 09:56:09,15.08839896,0.0001471,53.2146,71.5116,89.0966,271.0195,0.0011728,0.00018426,0.0,0 STARLINK-3829,1 52348U 22045T   23070.41399375  .00018426  00000-0  11728-2 0  9990,2 52348  53.2146  71.5116 0001471  89.0966 271.0195 15.08839896 50587,6917.881,95.438,540.763,538.728,0.0
52348.0,STARLINK-3829,PAYLOAD,2023-03-11 11:31:32,15.08845723,0.0001596,53.2153,71.2153,90.0349,270.0826,0.0012464,0.00019607,0.0,0 STARLINK-3829,1 52348U 22045T   23070.48023275  .00019607  00000-0  12464-2 0  9990,2 52348  53.2153  71.2153 0001596  90.0349 270.0826 15.08845723 50595,6917.863,95.437,540.832,538.624,0.0
52348.0,STARLINK-3829,PAYLOAD,2023-03-12 00:14:37,15.08849828,0.0002017,53.2169,68.8371,102.2988,257.823,0.00049634,7.622e-05,0.0,0 STARLINK-3829,1 52348U 22045T   23071.01015356  .00007622  00000-0  49634-3 0  9995,2 52348  53.2169  68.8371 0002017 102.2988 257.8230 15.08849828 50671,6917.85,95.437,541.111,538.32,0.0
52348.0,STARLINK-3829,PAYLOAD,2023-03-12 11:22:18,15.08863256,0.0002002,53.2163,66.7532,118.3285,241.7909,0.0009099,0.00014232,0.0,0 STARLINK-3829,1 52348U 22045T   23071.47382726  .00014232  00000-0  90990-3 0  9999,2 52348  53.2163  66.7532 0002002 118.3285 241.7909 15.08863256 50747,6917.809,95.436,541.059,538.289,0.0
52348.0,STARLINK-3829,PAYLOAD,2023-03-13 00:05:23,15.08849515,0.00015,53.217,64.3762,105.6006,254.5151,0.00045412,6.949e-05,0.0,0 STARLINK-3829,1 52348U 22045T   23072.00374765  .00006949  00000-0  45412-3 0  9998,2 52348  53.2170  64.3762 0001500 105.6006 254.5151 15.08849515 50828,6917.851,95.437,540.754,538.679,0.0
52348.0,STARLINK-3829,PAYLOAD,2023-03-13 11:13:05,15.08860497,0.0001802,53.217,62.2945,99.1123,261.0073,0.0007119,0.00011066,0.0,0 STARLINK-3829,1 52348U 22045T   23072.46742342  .00011066  00000-0  71190-3 0  9996,2 52348  53.2170  62.2945 0001802  99.1123 261.0073 15.08860497 50895,6917.818,95.436,540.929,538.436,0.0
52348.0,STARLINK-3829,PAYLOAD,2023-03-14 04:42:20,15.08834587,0.0001624,53.2181,59.0217,101.8748,258.2426,0.00047977,7.355e-05,0.0,0 STARLINK-3829,1 52348U 22045T   23073.19606875  .00007355  00000-0  47977-3 0  9999,2 52348  53.2181  59.0217 0001624 101.8748 258.2426 15.08834587 51004,6917.897,95.438,540.885,538.638,0.0
52348.0,STARLINK-3829,PAYLOAD,2023-03-14 09:28:29,15.08843362,0.0001184,53.2171,58.1324,86.7643,273.3485,0.0013629,0.00021471,0.0,0 STARLINK-3829,1 52348U 22045T   23073.39478995  .00021471  00000-0  13629-2 0  9992,2 52348  53.2171  58.1324 0001184  86.7643 273.3485 15.08843362 51035,6917.87,95.437,540.554,538.916,0.0
52348.0,STARLINK-3829,PAYLOAD,2023-03-14 15:50:02,15.08845834,0.0001321,53.2176,56.9425,80.0897,280.0245,0.0010352,0.00016228,0.0,0 STARLINK-3829,1 52348U 22045T   23073.65975093  .00016228  00000-0  10352-2 0  9996,2 52348  53.2176  56.9425 0001321  80.0897 280.0245 15.08845834 51078,6917.863,95.437,540.641,538.814,0.0
52348.0,STARLINK-3829,PAYLOAD,2023-03-15 07:43:53,15.08864857,0.0001363,53.2159,53.9694,80.0566,280.058,0.0010206,0.00016003,0.0,0 STARLINK-3829,1 52348U 22045T   23074.32214479  .00016003  00000-0  10206-2 0  9994,2 52348  53.2159  53.9694 0001363  80.0566 280.0580 15.08864857 51172,6917.804,95.436,540.612,538.727,0.0
52348.0,STARLINK-3829,PAYLOAD,2023-03-15 22:02:21,15.08853722,0.0001295,53.2164,51.2933,88.0811,272.0329,0.00060331,9.33e-05,0.0,0 STARLINK-3829,1 52348U 22045T   23074.91830544  .00009330  00000-0  60331-3 0  9996,2 52348  53.2164  51.2933 0001295  88.0811 272.0329 15.08853722 51261,6917.838,95.437,540.599,538.808,0.0
52348.0,STARLINK-3829,PAYLOAD,2023-03-16 05:59:16,15.08858638,0.0001199,53.2159,49.8061,98.6687,261.4441,0.00069334,0.00010769,0.0,0 STARLINK-3829,1 52348U 22045T   23075.24950161  .00010769  00000-0  69334-3 0  9991,2 52348  53.2159  49.8061 0001199  98.6687 261.4441 15.08858638 51315,6917.823,95.436,540.518,538.859,0.0
52348.0,STARLINK-3829,PAYLOAD,2023-03-16 07:34:39,15.08863657,0.0001214,53.2159,49.5084,99.8095,260.3034,0.00089998,0.00014073,0.0,0 STARLINK-3829,1 52348U 22045T   23075.31574037  .00014073  00000-0  89998-3 0  9993,2 52348  53.2159  49.5084 0001214  99.8095 260.3034 15.08863657 51325,6917.808,95.436,540.513,538.833,0.0
52348.0,STARLINK-3829,PAYLOAD,2023-03-16 15:31:36,15.08834802,0.0001682,53.2158,48.0218,86.5221,273.5964,0.000131,1.797e-05,0.0,0 STARLINK-3829,1 52348U 22045T   23075.64694629  .00001797  00000-0  13100-3 0  9990,2 52348  53.2158  48.0218 0001682  86.5221 273.5964 15.08834802 51373,6917.896,95.438,540.925,538.598,0.0
52348.0,STARLINK-3829,PAYLOAD,2023-03-17 04:14:41,15.08832054,0.0001286,53.2155,45.6433,89.4087,270.7052,0.0001778,2.542e-05,0.0,0 STARLINK-3829,1 52348U 22045T   23076.17687103  .00002542  00000-0  17780-3 0  9995,2 52348  53.2155  45.6433 0001286  89.4087 270.7052 15.08832054 51457,6917.905,95.438,540.659,538.88,0.0
52348.0,STARLINK-3829,PAYLOAD,2023-03-17 15:22:23,15.08832327,0.0001273,53.2166,43.5596,96.0006,264.1131,0.0004313,6.581e-05,0.0,0 STARLINK-3829,1 52348U 22045T   23076.64055466  .00006581  00000-0  43130-3 0  9993,2 52348  53.2166  43.5596 0001273  96.0006 264.1131 15.08832327 51523,6917.904,95.438,540.649,538.888,0.0
52348.0,STARLINK-3829,PAYLOAD,2023-03-17 21:43:56,15.08837523,0.0001279,53.2168,42.3694,98.5572,261.5565,0.00036611,5.543e-05,0.0,0 STARLINK-3829,1 52348U 22045T   23076.90551467  .00005543  00000-0  36611-3 0  9997,2 52348  53.2168  42.3694 0001279  98.5572 261.5565 15.08837523 51561,6917.888,95.438,540.638,538.868,0.0
52348.0,STARLINK-3829,PAYLOAD,2023-03-18 07:16:15,15.08849719,0.0001381,53.2163,40.5856,95.0317,265.0832,0.00073951,0.00011504,0.0,0 STARLINK-3829,1 52348U 22045T   23077.30295297  .00011504  00000-0  73951-3 0  9990,2 52348  53.2163  40.5856 0001381  95.0317 265.0832 15.08849719 51622,6917.851,95.437,540.671,538.76,0.0
52348.0,STARLINK-3829,PAYLOAD,2023-03-19 03:56:15,15.08849658,0.000139,53.2177,36.7194,79.7003,280.4146,0.00033008,4.971e-05,0.0,0 STARLINK-3829,1 52348U 22045T   23078.16407113  .00004971  00000-0  33008-3 0  9996,2 52348  53.2177  36.7194 0001390  79.7003 280.4146 15.08849658 51755,6917.851,95.437,540.677,538.754,0.0
52348.0,STARLINK-3829,PAYLOAD,2023-03-19 21:25:30,15.08844175,0.000129,53.217,33.4485,89.8271,270.2869,0.00012499,1.702e-05,0.0,0 STARLINK-3829,1 52348U 22045T   23078.89271122  .00001702  00000-0  12499-3 0  9995,2 52348  53.2170  33.4485 0001290  89.8271 270.2869 15.08844175 51863,6917.868,95.437,540.625,538.84,0.0
52348.0,STARLINK-3829,PAYLOAD,2023-03-20 03:47:02,15.08845599,0.00011,53.2168,32.2607,74.7502,285.3612,0.00019377,2.798e-05,0.0,0 STARLINK-3829,1 52348U 22045T   23079.15767077  .00002798  00000-0  19377-3 0  9992,2 52348  53.2168  32.2607 0001100  74.7502 285.3612 15.08845599 51902,6917.863,95.437,540.489,538.967,0.0
52348.0,STARLINK-3829,PAYLOAD,2023-03-21 06:48:35,15.08854624,0.000107,53.2175,27.2069,87.7277,272.3838,0.00034898,5.273e-05,0.0,0 STARLINK-3829,1 52348U 22045T   23080.28374620  .00005273  00000-0  34898-3 0  9992,2 52348  53.2175  27.2069 0001070  87.7277 272.3838 15.08854624 52079,6917.836,95.437,540.441,538.96,0.0
52348.0,STARLINK-3829,PAYLOAD,2023-03-22 05:04:00,15.08841165,0.0001172,53.2176,23.0426,94.0108,266.1018,0.00012879,1.763e-05,0.0,0 STARLINK-3829,1 52348U 22045T   23081.21111445  .00001763  00000-0  12879-3 0  9995,2 52348  53.2176  23.0426 0001172  94.0108 266.1018 15.08841165 52211,6917.877,95.437,540.553,538.931,0.0
